{
  "type": "FeatureCollection",
  "features": [
    {
      "type": "Feature",
      "properties": {
        "norad_id": 27954,
        "name": "GALAXY 13 (HORIZONS-1)",
        "group": "intelsat",
        "lat": -0.9576509333426293,
        "lon": -0.8022138896705965,
        "alt_km": 35787.50365102073,
        "timestamp": "2025-12-21T03:56:50.521841+00:00",
        "meta_object_name": "GALAXY 13 (HORIZONS-1)",
        "meta_object_id": "2003-044A",
        "meta_epoch": "2025-12-20T17:39:11.609856",
        "meta_mean_motion": 1.00269908,
        "meta_eccentricity": 0.0002382,
        "meta_inclination": 0.9571,
        "meta_ra_of_asc_node": 86.3686,
        "meta_arg_of_pericenter": 178.091,
        "meta_mean_anomaly": 299.8853,
        "meta_ephemeris_type": 0,
        "meta_classification_type": "U",
        "meta_norad_cat_id": 27954,
        "meta_element_set_no": 999,
        "meta_rev_at_epoch": 4478,
        "meta_bstar": 0,
        "meta_mean_motion_dot": 1.55e-06,
        "meta_mean_motion_ddot": 0,
        "tle_line1": "1 27954U 03044A   25354.73555104  .00000155  00000+0  00000+0 0  9996",
        "tle_line2": "2 27954   0.9571  86.3686 0002382 178.0910 299.8853  1.00269908 44781"
      },
      "geometry": {
        "type": "Point",
        "coordinates": [
          -0.8022138896705965,
          -0.9576509333426293
        ]
      }
    },
    {
      "type": "Feature",
      "properties": {
        "norad_id": 28358,
        "name": "INTELSAT 10-02",
        "group": "intelsat",
        "lat": 0.028003315641642778,
        "lon": 148.22559828942457,
        "alt_km": 35789.509929459884,
        "timestamp": "2025-12-21T03:56:50.521860+00:00",
        "meta_object_name": "INTELSAT 10-02",
        "meta_object_id": "2004-022A",
        "meta_epoch": "2025-12-20T20:04:27.698016",
        "meta_mean_motion": 1.00272916,
        "meta_eccentricity": 9.33e-05,
        "meta_inclination": 0.0206,
        "meta_ra_of_asc_node": 70.8131,
        "meta_arg_of_pericenter": 240.5058,
        "meta_mean_anomaly": 78.4988,
        "meta_ephemeris_type": 0,
        "meta_classification_type": "U",
        "meta_norad_cat_id": 28358,
        "meta_element_set_no": 999,
        "meta_rev_at_epoch": 7876,
        "meta_bstar": 0,
        "meta_mean_motion_dot": 1.3e-07,
        "meta_mean_motion_ddot": 0,
        "tle_line1": "1 28358U 04022A   25354.83643169  .00000013  00000+0  00000+0 0  9995",
        "tle_line2": "2 28358   0.0206  70.8131 0000933 240.5058  78.4988  1.00272916 78765"
      },
      "geometry": {
        "type": "Point",
        "coordinates": [
          148.22559828942457,
          0.028003315641642778
        ]
      }
    },
    {
      "type": "Feature",
      "properties": {
        "norad_id": 28626,
        "name": "XM-3 (RHYTHM)",
        "group": "intelsat",
        "lat": 0.1021459621897603,
        "lon": -136.56628339938862,
        "alt_km": 36166.768449976335,
        "timestamp": "2025-12-21T03:56:50.521884+00:00",
        "meta_object_name": "XM-3 (RHYTHM)",
        "meta_object_id": "2005-008A",
        "meta_epoch": "2025-12-20T19:36:09.897408",
        "meta_mean_motion": 0.98949913,
        "meta_eccentricity": 0.0001956,
        "meta_inclination": 0.1946,
        "meta_ra_of_asc_node": 81.989,
        "meta_arg_of_pericenter": 277.9432,
        "meta_mean_anomaly": 99.668,
        "meta_ephemeris_type": 0,
        "meta_classification_type": "U",
        "meta_norad_cat_id": 28626,
        "meta_element_set_no": 999,
        "meta_rev_at_epoch": 4083,
        "meta_bstar": 0,
        "meta_mean_motion_dot": 7.8e-07,
        "meta_mean_motion_ddot": 0,
        "tle_line1": "1 28626U 05008A   25354.81678122  .00000078  00000+0  00000+0 0  9994",
        "tle_line2": "2 28626   0.1946  81.9890 0001956 277.9432  99.6680  0.98949913 40831"
      },
      "geometry": {
        "type": "Point",
        "coordinates": [
          -136.56628339938862,
          0.1021459621897603
        ]
      }
    },
    {
      "type": "Feature",
      "properties": {
        "norad_id": 28659,
        "name": "DIRECTV 8",
        "group": "intelsat",
        "lat": 0.018817682524704442,
        "lon": 30.169759409107506,
        "alt_km": 35790.52993048381,
        "timestamp": "2025-12-21T03:56:50.521895+00:00",
        "meta_object_name": "DIRECTV 8",
        "meta_object_id": "2005-019A",
        "meta_epoch": "2025-12-20T17:47:48.286176",
        "meta_mean_motion": 1.00270148,
        "meta_eccentricity": 0.0002892,
        "meta_inclination": 0.025,
        "meta_ra_of_asc_node": 13.889,
        "meta_arg_of_pericenter": 267.277,
        "meta_mean_anomaly": 316.3073,
        "meta_ephemeris_type": 0,
        "meta_classification_type": "U",
        "meta_norad_cat_id": 28659,
        "meta_element_set_no": 999,
        "meta_rev_at_epoch": 7528,
        "meta_bstar": 0,
        "meta_mean_motion_dot": 0,
        "meta_mean_motion_ddot": 0,
        "tle_line1": "1 28659U 05019A   25354.74153109  .00000000  00000+0  00000+0 0  9992",
        "tle_line2": "2 28659   0.0250  13.8890 0002892 267.2770 316.3073  1.00270148 75288"
      },
      "geometry": {
        "type": "Point",
        "coordinates": [
          30.169759409107506,
          0.018817682524704442
        ]
      }
    },
    {
      "type": "Feature",
      "properties": {
        "norad_id": 28702,
        "name": "GALAXY 28 (G-28)",
        "group": "intelsat",
        "lat": -0.9798106461258754,
        "lon": 60.54925586888287,
        "alt_km": 35796.72069896152,
        "timestamp": "2025-12-21T03:56:50.521906+00:00",
        "meta_object_name": "GALAXY 28 (G-28)",
        "meta_object_id": "2005-022A",
        "meta_epoch": "2025-12-20T00:49:30.482112",
        "meta_mean_motion": 1.00271047,
        "meta_eccentricity": 0.00029384,
        "meta_inclination": 2.8382,
        "meta_ra_of_asc_node": 81.1982,
        "meta_arg_of_pericenter": 194.0723,
        "meta_mean_anomaly": 97.2981,
        "meta_ephemeris_type": 0,
        "meta_classification_type": "U",
        "meta_norad_cat_id": 28702,
        "meta_element_set_no": 999,
        "meta_rev_at_epoch": 5017,
        "meta_bstar": 0,
        "meta_mean_motion_dot": -1.65e-06,
        "meta_mean_motion_ddot": 0,
        "tle_line1": "1 28702U 05022A   25354.03438058 -.00000165  00000+0  00000+0 0  9999",
        "tle_line2": "2 28702   2.8382  81.1982 0002938 194.0723  97.2981  1.00271047 50172"
      },
      "geometry": {
        "type": "Point",
        "coordinates": [
          60.54925586888287,
          -0.9798106461258754
        ]
      }
    },
    {
      "type": "Feature",
      "properties": {
        "norad_id": 29236,
        "name": "GALAXY 16 (G-16)",
        "group": "intelsat",
        "lat": -0.004772809394874705,
        "lon": 50.20253613992515,
        "alt_km": 35794.16601940968,
        "timestamp": "2025-12-21T03:56:50.521917+00:00",
        "meta_object_name": "GALAXY 16 (G-16)",
        "meta_object_id": "2006-023A",
        "meta_epoch": "2025-12-20T16:10:59.142432",
        "meta_mean_motion": 1.00271069,
        "meta_eccentricity": 0.0002474,
        "meta_inclination": 0.0066,
        "meta_ra_of_asc_node": 240.5533,
        "meta_arg_of_pericenter": 31.0311,
        "meta_mean_anomaly": 321.6621,
        "meta_ephemeris_type": 0,
        "meta_classification_type": "U",
        "meta_norad_cat_id": 29236,
        "meta_element_set_no": 999,
        "meta_rev_at_epoch": 7118,
        "meta_bstar": 0,
        "meta_mean_motion_dot": -1.03e-06,
        "meta_mean_motion_ddot": 0,
        "tle_line1": "1 29236U 06023A   25354.67429563 -.00000103  00000+0  00000+0 0  9997",
        "tle_line2": "2 29236   0.0066 240.5533 0002474  31.0311 321.6621  1.00271069 71188"
      },
      "geometry": {
        "type": "Point",
        "coordinates": [
          50.20253613992515,
          -0.004772809394874705
        ]
      }
    },
    {
      "type": "Feature",
      "properties": {
        "norad_id": 29494,
        "name": "DIRECTV 9S",
        "group": "intelsat",
        "lat": -1.1086943113710213,
        "lon": 48.02058316276539,
        "alt_km": 35794.37433848467,
        "timestamp": "2025-12-21T03:56:50.521928+00:00",
        "meta_object_name": "DIRECTV 9S",
        "meta_object_id": "2006-043A",
        "meta_epoch": "2025-12-20T16:10:21.700992",
        "meta_mean_motion": 1.00271599,
        "meta_eccentricity": 0.0002825,
        "meta_inclination": 1.9594,
        "meta_ra_of_asc_node": 83.1295,
        "meta_arg_of_pericenter": 192.4482,
        "meta_mean_anomaly": 315.3062,
        "meta_ephemeris_type": 0,
        "meta_classification_type": "U",
        "meta_norad_cat_id": 29494,
        "meta_element_set_no": 999,
        "meta_rev_at_epoch": 4959,
        "meta_bstar": 0,
        "meta_mean_motion_dot": -9.1e-07,
        "meta_mean_motion_ddot": 0,
        "tle_line1": "1 29494U 06043A   25354.67386228 -.00000091  00000+0  00000+0 0  9991",
        "tle_line2": "2 29494   1.9594  83.1295 0002825 192.4482 315.3062  1.00271599 49594"
      },
      "geometry": {
        "type": "Point",
        "coordinates": [
          48.02058316276539,
          -1.1086943113710213
        ]
      }
    }
  ]
}